[{"OBJECT_NAME":"COSMOS 2498 (RODNIK-S 12)","OBJECT_ID":"2014-028C","EPOCH":"2026-03-09T23:19:14.802240","MEAN_MOTION":12.42976568,"ECCENTRICITY":0.00199316,"INCLINATION":82.4508,"RA_OF_ASC_NODE":171.0457,"ARG_OF_PERICENTER":289.7309,"MEAN_ANOMALY":70.1621,"EPHEMERIS_TYPE":0,"CLASSIFICATION_TYPE":"U","NORAD_CAT_ID":39763,"ELEMENT_SET_NO":999,"REV_AT_EPOCH":53522,"BSTAR":-0.00024724786,"MEAN_MOTION_DOT":-2.5e-7,"MEAN_MOTION_DDOT":0},{"OBJECT_NAME":"COSMOS 1561","OBJECT_ID":"1984-052C","EPOCH":"2026-03-09T16:25:12.258624","MEAN_MOTION":12.47989722,"ECCENTRICITY":0.0014634,"INCLINATION":74.0133,"RA_OF_ASC_NODE":162.8151,"ARG_OF_PERICENTER":40.0719,"MEAN_ANOMALY":31.3589,"EPHEMERIS_TYPE":0,"CLASSIFICATION_TYPE":"U","NORAD_CAT_ID":15000,"ELEMENT_SET_NO":999,"REV_AT_EPOCH":90332,"BSTAR":0.0001124196,"MEAN_MOTION_DOT":1.0e-8,"MEAN_MOTION_DDOT":0}]
